{
  "type": "FeatureCollection",
  "features": [
    {
      "type": "Feature",
      "properties": {
        "norad_id": 31307,
        "name": "GALAXY 17 (G-17)",
        "group": "intelsat",
        "lat": -0.48469411740877355,
        "lon": -87.29524738240337,
        "alt_km": 35763.25122055351,
        "timestamp": "2025-12-27T17:24:57.061173+00:00",
        "meta_object_name": "GALAXY 17 (G-17)",
        "meta_object_id": "2007-016B",
        "meta_epoch": "2025-12-27T05:41:41.557920",
        "meta_mean_motion": 1.00271444,
        "meta_eccentricity": 0.00056477,
        "meta_inclination": 2.5345,
        "meta_ra_of_asc_node": 82.1193,
        "meta_arg_of_pericenter": 175.01,
        "meta_mean_anomaly": 199.2775,
        "meta_ephemeris_type": 0,
        "meta_classification_type": "U",
        "meta_norad_cat_id": 31307,
        "meta_element_set_no": 999,
        "meta_rev_at_epoch": 6808,
        "meta_bstar": 0,
        "meta_mean_motion_dot": -1.85e-06,
        "meta_mean_motion_ddot": 0,
        "tle_line1": "1 31307U 07016B   25361.23728655 -.00000185  00000+0  00000+0 0  9996",
        "tle_line2": "2 31307   2.5345  82.1193 0005647 175.0100 199.2775  1.00271444 68080"
      },
      "geometry": {
        "type": "Point",
        "coordinates": [
          -87.29524738240337,
          -0.48469411740877355
        ]
      }
    },
    {
      "type": "Feature",
      "properties": {
        "norad_id": 31862,
        "name": "DIRECTV 10",
        "group": "intelsat",
        "lat": -0.005422635555853198,
        "lon": -105.02481547705321,
        "alt_km": 35780.50766443913,
        "timestamp": "2025-12-27T17:24:57.061184+00:00",
        "meta_object_name": "DIRECTV 10",
        "meta_object_id": "2007-032A",
        "meta_epoch": "2025-12-25T09:09:15.831072",
        "meta_mean_motion": 1.00280696,
        "meta_eccentricity": 7.66e-05,
        "meta_inclination": 0.0126,
        "meta_ra_of_asc_node": 126.575,
        "meta_arg_of_pericenter": 111.4706,
        "meta_mean_anomaly": 250.6263,
        "meta_ephemeris_type": 0,
        "meta_classification_type": "U",
        "meta_norad_cat_id": 31862,
        "meta_element_set_no": 999,
        "meta_rev_at_epoch": 4385,
        "meta_bstar": 0,
        "meta_mean_motion_dot": -8.3e-07,
        "meta_mean_motion_ddot": 0,
        "tle_line1": "1 31862U 07032A   25359.38143323 -.00000083  00000+0  00000+0 0  9993",
        "tle_line2": "2 31862   0.0126 126.5750 0000766 111.4706 250.6263  1.00280696 43852"
      },
      "geometry": {
        "type": "Point",
        "coordinates": [
          -105.02481547705321,
          -0.005422635555853198
        ]
      }
    },
    {
      "type": "Feature",
      "properties": {
        "norad_id": 32253,
        "name": "INTELSAT 11 (IS-11)",
        "group": "intelsat",
        "lat": 3.0435924465810817,
        "lon": 157.41488406653974,
        "alt_km": 36134.71327542834,
        "timestamp": "2025-12-27T17:24:57.061196+00:00",
        "meta_object_name": "INTELSAT 11 (IS-11)",
        "meta_object_id": "2007-044B",
        "meta_epoch": "2025-12-27T10:20:35.592864",
        "meta_mean_motion": 0.99052886,
        "meta_eccentricity": 0.0008682,
        "meta_inclination": 3.1165,
        "meta_ra_of_asc_node": 80.8097,
        "meta_arg_of_pericenter": 172.4291,
        "meta_mean_anomaly": 159.2123,
        "meta_ephemeris_type": 0,
        "meta_classification_type": "U",
        "meta_norad_cat_id": 32253,
        "meta_element_set_no": 999,
        "meta_rev_at_epoch": 6674,
        "meta_bstar": 0,
        "meta_mean_motion_dot": -2.34e-06,
        "meta_mean_motion_ddot": 0,
        "tle_line1": "1 32253U 07044B   25361.43096751 -.00000234  00000+0  00000+0 0  9990",
        "tle_line2": "2 32253   3.1165  80.8097 0008682 172.4291 159.2123  0.99052886 66748"
      },
      "geometry": {
        "type": "Point",
        "coordinates": [
          157.41488406653974,
          3.0435924465810817
        ]
      }
    },
    {
      "type": "Feature",
      "properties": {
        "norad_id": 32388,
        "name": "HORIZONS-2",
        "group": "intelsat",
        "lat": -0.794414700426915,
        "lon": -76.14912991946207,
        "alt_km": 35766.48452191859,
        "timestamp": "2025-12-27T17:24:57.061208+00:00",
        "meta_object_name": "HORIZONS-2",
        "meta_object_id": "2007-063B",
        "meta_epoch": "2025-12-27T01:24:36.095040",
        "meta_mean_motion": 1.00268662,
        "meta_eccentricity": 0.00048859,
        "meta_inclination": 2.1568,
        "meta_ra_of_asc_node": 82.8029,
        "meta_arg_of_pericenter": 197.7808,
        "meta_mean_anomaly": 122.5454,
        "meta_ephemeris_type": 0,
        "meta_classification_type": "U",
        "meta_norad_cat_id": 32388,
        "meta_element_set_no": 999,
        "meta_rev_at_epoch": 6608,
        "meta_bstar": 0,
        "meta_mean_motion_dot": -2.32e-06,
        "meta_mean_motion_ddot": 0,
        "tle_line1": "1 32388U 07063B   25361.05875110 -.00000232  00000+0  00000+0 0  9990",
        "tle_line2": "2 32388   2.1568  82.8029 0004885 197.7808 122.5454  1.00268662 66086"
      },
      "geometry": {
        "type": "Point",
        "coordinates": [
          -76.14912991946207,
          -0.794414700426915
        ]
      }
    },
    {
      "type": "Feature",
      "properties": {
        "norad_id": 32729,
        "name": "DIRECTV 11",
        "group": "intelsat",
        "lat": 0.013068090833093814,
        "lon": -101.6219284739441,
        "alt_km": 35786.31207335411,
        "timestamp": "2025-12-27T17:24:57.061219+00:00",
        "meta_object_name": "DIRECTV 11",
        "meta_object_id": "2008-013A",
        "meta_epoch": "2025-12-24T22:53:59.758368",
        "meta_mean_motion": 1.00260442,
        "meta_eccentricity": 0.0001047,
        "meta_inclination": 0.0475,
        "meta_ra_of_asc_node": 199.7105,
        "meta_arg_of_pericenter": 11.4593,
        "meta_mean_anomaly": 126.8496,
        "meta_ephemeris_type": 0,
        "meta_classification_type": "U",
        "meta_norad_cat_id": 32729,
        "meta_element_set_no": 999,
        "meta_rev_at_epoch": 4384,
        "meta_bstar": 0,
        "meta_mean_motion_dot": -1.03e-06,
        "meta_mean_motion_ddot": 0,
        "tle_line1": "1 32729U 08013A   25358.95416387 -.00000103  00000+0  00000+0 0  9994",
        "tle_line2": "2 32729   0.0475 199.7105 0001047  11.4593 126.8496  1.00260442 43842"
      },
      "geometry": {
        "type": "Point",
        "coordinates": [
          -101.6219284739441,
          0.013068090833093814
        ]
      }
    },
    {
      "type": "Feature",
      "properties": {
        "norad_id": 32951,
        "name": "GALAXY 18 (G-18)",
        "group": "intelsat",
        "lat": -0.028672544883059613,
        "lon": -125.35540727406944,
        "alt_km": 35777.065972146585,
        "timestamp": "2025-12-27T17:24:57.061246+00:00",
        "meta_object_name": "GALAXY 18 (G-18)",
        "meta_object_id": "2008-024A",
        "meta_epoch": "2025-12-27T10:42:18.514368",
        "meta_mean_motion": 1.00271409,
        "meta_eccentricity": 0.0003384,
        "meta_inclination": 0.0202,
        "meta_ra_of_asc_node": 8.4916,
        "meta_arg_of_pericenter": 276.7397,
        "meta_mean_anomaly": 208.5148,
        "meta_ephemeris_type": 0,
        "meta_classification_type": "U",
        "meta_norad_cat_id": 32951,
        "meta_element_set_no": 999,
        "meta_rev_at_epoch": 4413,
        "meta_bstar": 0,
        "meta_mean_motion_dot": 0,
        "meta_mean_motion_ddot": 0,
        "tle_line1": "1 32951U 08024A   25361.44604762  .00000000  00000+0  00000+0 0  9992",
        "tle_line2": "2 32951   0.0202   8.4916 0003384 276.7397 208.5148  1.00271409 44137"
      },
      "geometry": {
        "type": "Point",
        "coordinates": [
          -125.35540727406944,
          -0.028672544883059613
        ]
      }
    },
    {
      "type": "Feature",
      "properties": {
        "norad_id": 33153,
        "name": "INTELSAT 25 (IS-25)",
        "group": "intelsat",
        "lat": -2.043884426299259,
        "lon": -33.78359064327137,
        "alt_km": 35773.45891155853,
        "timestamp": "2025-12-27T17:24:57.061259+00:00",
        "meta_object_name": "INTELSAT 25 (IS-25)",
        "meta_object_id": "2008-034A",
        "meta_epoch": "2025-12-27T11:08:23.517312",
        "meta_mean_motion": 1.00270989,
        "meta_eccentricity": 0.0005046,
        "meta_inclination": 2.2637,
        "meta_ra_of_asc_node": 82.4859,
        "meta_arg_of_pericenter": 191.6707,
        "meta_mean_anomaly": 317.6398,
        "meta_ephemeris_type": 0,
        "meta_classification_type": "U",
        "meta_norad_cat_id": 33153,
        "meta_element_set_no": 999,
        "meta_rev_at_epoch": 6397,
        "meta_bstar": 0,
        "meta_mean_motion_dot": -2.02e-06,
        "meta_mean_motion_ddot": 0,
        "tle_line1": "1 33153U 08034A   25361.46416108 -.00000202  00000+0  00000+0 0  9990",
        "tle_line2": "2 33153   2.2637  82.4859 0005046 191.6707 317.6398  1.00270989 63977"
      },
      "geometry": {
        "type": "Point",
        "coordinates": [
          -33.78359064327137,
          -2.043884426299259
        ]
      }
    }
  ]
}